NORAD_CAT_ID,OBJECT_NAME,OBJECT_TYPE,EPOCH,MEAN_MOTION,ECCENTRICITY,INCLINATION,RA_OF_ASC_NODE,ARG_OF_PERICENTER,MEAN_ANOMALY,BSTAR,MEAN_MOTION_DOT,MEAN_MOTION_DDOT,TLE_LINE0,TLE_LINE1,TLE_LINE2,SEMIMAJOR_AXIS,PERIOD,APOGEE,PERIGEE,DECAYED
55657.0,STARLINK-5328,PAYLOAD,2024-03-10 14:59:37,14.98331303,0.0002746,70.0001,202.848,259.8331,100.2518,-4.4977e-05,-6.3e-06,0.0,0 STARLINK-5328,1 55657U 23021AF  24070.62474482 -.00000630  00000-0 -44977-4 0  9992,2 55657  70.0001 202.8480 0002746 259.8331 100.2518 14.98331303 60077,6950.189,96.107,573.962,570.145,0.0
55657.0,STARLINK-5328,PAYLOAD,2024-03-10 18:11:53,14.98332662,0.000289,69.9997,202.5108,267.3239,92.7589,-1.991e-05,-3.31e-06,0.0,0 STARLINK-5328,1 55657U 23021AF  24070.75826339 -.00000331  00000-0 -19910-4 0  9995,2 55657  69.9997 202.5108 0002890 267.3239  92.7589 14.98332662 60097,6950.185,96.107,574.058,570.041,0.0
55657.0,STARLINK-5328,PAYLOAD,2024-03-11 11:49:22,14.98335728,0.0002874,69.9995,200.6595,270.1291,89.9538,-5.684e-05,-7.71e-06,0.0,0 STARLINK-5328,1 55657U 23021AF  24071.49262147 -.00000771  00000-0 -56840-4 0  9999,2 55657  69.9995 200.6595 0002874 270.1291  89.9538 14.98335728 59902,6950.175,96.107,574.038,570.043,0.0
55657.0,STARLINK-5328,PAYLOAD,2024-03-12 10:15:15,14.98328644,0.0002942,70.0002,198.3034,269.7853,90.2969,-1.2529e-05,-2.42e-06,0.0,0 STARLINK-5328,1 55657U 23021AF  24072.42726406 -.00000242  00000-0 -12529-4 0  9995,2 55657  70.0002 198.3034 0002942 269.7853  90.2969 14.98328644 60048,6950.197,96.107,574.107,570.017,0.0
55657.0,STARLINK-5328,PAYLOAD,2024-03-12 15:03:39,14.98331189,0.0002943,70.0002,197.7984,269.6698,90.4124,1.6201e-05,1e-06,0.0,0 STARLINK-5328,1 55657U 23021AF  24072.62754170  .00000100  00000-0  16201-4 0  9998,2 55657  70.0002 197.7984 0002943 269.6698  90.4124 14.98331189 60371,6950.189,96.107,574.1,570.009,0.0
55657.0,STARLINK-5328,PAYLOAD,2024-03-13 11:53:24,14.9833327,0.0002921,70.0004,195.6103,269.8513,90.2311,1.5635e-05,9.4e-07,0.0,0 STARLINK-5328,1 55657U 23021AF  24073.49541931  .00000094  00000-0  15635-4 0  9995,2 55657  70.0004 195.6103 0002921 269.8513  90.2311 14.98333270 60208,6950.183,96.107,574.078,570.018,0.0
55657.0,STARLINK-5328,PAYLOAD,2024-03-13 15:05:40,14.98335666,0.0002827,70.0013,195.2755,266.2964,93.7872,3.8408e-05,3.65e-06,0.0,0 STARLINK-5328,1 55657U 23021AF  24073.62893675  .00000365  00000-0  38408-4 0  9999,2 55657  70.0013 195.2755 0002827 266.2964  93.7872 14.98335666 60529,6950.175,96.107,574.005,570.076,0.0
55657.0,STARLINK-5328,PAYLOAD,2024-03-13 18:17:56,14.98335313,0.0002855,70.0013,194.939,266.4573,93.6259,3.2526e-05,2.95e-06,0.0,0 STARLINK-5328,1 55657U 23021AF  24073.76245672  .00000295  00000-0  32526-4 0  9999,2 55657  70.0013 194.9390 0002855 266.4573  93.6259 14.98335313 60548,6950.176,96.107,574.026,570.057,0.0
55657.0,STARLINK-5328,PAYLOAD,2024-03-14 07:07:01,14.98329181,0.0002727,70.0019,193.5931,265.3039,94.7808,2.0233e-05,1.48e-06,0.0,0 STARLINK-5328,1 55657U 23021AF  24074.29654029  .00000148  00000-0  20233-4 0  9997,2 55657  70.0019 193.5931 0002727 265.3039  94.7808 14.98329181 60620,6950.195,96.107,573.956,570.165,0.0
55657.0,STARLINK-5328,PAYLOAD,2024-03-14 11:55:25,14.98328181,0.0002779,70.0017,193.0879,266.0802,94.0039,5.5455e-06,-2.7e-07,0.0,0 STARLINK-5328,1 55657U 23021AF  24074.49682134 -.00000027  00000-0  55455-5 0  9999,2 55657  70.0017 193.0879 0002779 266.0802  94.0039 14.98328181 60355,6950.199,96.107,573.995,570.132,0.0
55657.0,STARLINK-5328,PAYLOAD,2024-03-15 11:57:26,14.9833156,0.0002753,70.0018,190.5637,265.0136,95.0709,-2.5192e-05,-3.94e-06,0.0,0 STARLINK-5328,1 55657U 23021AF  24075.49821923 -.00000394  00000-0 -25192-4 0  9993,2 55657  70.0018 190.5637 0002753 265.0136  95.0709 14.98331560 60508,6950.188,96.107,573.966,570.14,0.0
55657.0,STARLINK-5328,PAYLOAD,2024-03-16 11:59:27,14.98321405,0.0002942,70.0011,188.0375,262.9753,97.1071,-6.8122e-05,-9.05e-06,0.0,0 STARLINK-5328,1 55657U 23021AF  24076.49962932 -.00000905  00000-0 -68122-4 0  9998,2 55657  70.0011 188.0375 0002942 262.9753  97.1071 14.98321405 60651,6950.219,96.108,574.129,570.04,0.0
55657.0,STARLINK-5328,PAYLOAD,2024-03-16 13:35:36,14.98320798,0.0002992,70.0012,187.8695,264.6366,95.4452,-7.1386e-05,-9.44e-06,0.0,0 STARLINK-5328,1 55657U 23021AF  24076.56639027 -.00000944  00000-0 -71386-4 0  9991,2 55657  70.0012 187.8695 0002992 264.6366  95.4452 14.98320798 60960,6950.221,96.108,574.166,570.007,0.0
55657.0,STARLINK-5328,PAYLOAD,2024-03-16 16:47:52,14.98321455,0.0003199,70.001,187.5328,270.3,89.7792,-6.3582e-05,-8.51e-06,0.0,0 STARLINK-5328,1 55657U 23021AF  24076.69991070 -.00000851  00000-0 -63582-4 0  9990,2 55657  70.0010 187.5328 0003199 270.3000  89.7792 14.98321455 60983,6950.219,96.108,574.308,569.861,0.0
55657.0,STARLINK-5328,PAYLOAD,2024-03-17 12:01:29,14.98318461,0.000257,70.0038,185.5167,255.1998,104.8876,-1.9821e-06,-1.17e-06,0.0,0 STARLINK-5328,1 55657U 23021AF  24077.50103154 -.00000117  00000-0 -19821-5 0  9992,2 55657  70.0038 185.5167 0002570 255.1998 104.8876 14.98318461 60807,6950.229,96.108,573.88,570.307,0.0
55657.0,STARLINK-5328,PAYLOAD,2024-03-17 13:37:37,14.98319488,0.0002585,70.0035,185.3476,255.3215,104.7657,6.7374e-06,-1.3e-07,0.0,0 STARLINK-5328,1 55657U 23021AF  24077.56779103 -.00000013  00000-0  67374-5 0  9991,2 55657  70.0035 185.3476 0002585 255.3215 104.7657 14.98319488 61116,6950.225,96.108,573.887,570.294,0.0
55657.0,STARLINK-5328,PAYLOAD,2024-03-17 16:49:52,14.98333868,0.0002922,70.0024,185.0096,263.7064,96.3763,0.0001408,1.588e-05,0.0,0 STARLINK-5328,1 55657U 23021AF  24077.70129788  .00001588  00000-0  14080-3 0  9996,2 55657  70.0024 185.0096 0002922 263.7064  96.3763 14.98333868 60839,6950.181,96.107,574.077,570.015,0.0
55657.0,STARLINK-5328,PAYLOAD,2024-03-18 12:03:29,14.983281,0.000291,70.0021,182.9907,264.1914,95.8913,0.00014045,1.583e-05,0.0,0 STARLINK-5328,1 55657U 23021AF  24078.50242096  .00001583  00000-0  14045-3 0  9999,2 55657  70.0021 182.9907 0002910 264.1914  95.8913 14.98328100 60956,6950.199,96.107,574.086,570.041,0.0
55657.0,STARLINK-5328,PAYLOAD,2024-03-19 12:05:29,14.98342501,0.0003006,70.0015,180.4644,264.6098,95.4718,-1.7461e-05,-3.01e-06,0.0,0 STARLINK-5328,1 55657U 23021AF  24079.50381260 -.00000301  00000-0 -17461-4 0  9992,2 55657  70.0015 180.4644 0003006 264.6098  95.4718 14.98342501 61406,6950.154,96.106,574.108,569.93,0.0
55657.0,STARLINK-5328,PAYLOAD,2024-03-19 16:53:52,14.98348771,0.0002879,70.0016,179.9603,266.3804,93.7025,6.4957e-05,6.83e-06,0.0,0 STARLINK-5328,1 55657U 23021AF  24079.70408498  .00000683  00000-0  64957-4 0  9990,2 55657  70.0016 179.9603 0002879 266.3804  93.7025 14.98348771 61133,6950.135,96.106,574.001,569.999,0.0
55657.0,STARLINK-5328,PAYLOAD,2024-03-20 10:31:22,14.98325554,0.0002434,70.0035,178.1097,262.8624,97.2259,-5.9615e-05,-8.04e-06,0.0,0 STARLINK-5328,1 55657U 23021AF  24080.43846051 -.00000804  00000-0 -59615-4 0  9995,2 55657  70.0035 178.1097 0002434 262.8624  97.2259 14.98325554 61244,6950.207,96.107,573.763,570.38,0.0
55657.0,STARLINK-5328,PAYLOAD,2024-03-20 13:43:39,14.98325826,0.000268,70.0023,177.7722,260.253,99.8326,-0.00010246,-1.315e-05,0.0,0 STARLINK-5328,1 55657U 23021AF  24080.57198166 -.00001315  00000-0 -10246-3 0  9991,2 55657  70.0023 177.7722 0002680 260.2530  99.8326 14.98325826 61562,6950.206,96.107,573.933,570.208,0.0
55657.0,STARLINK-5328,PAYLOAD,2024-03-20 16:55:55,14.98329226,0.0002934,70.0016,177.4348,268.1401,91.9422,-6.879e-05,-9.14e-06,0.0,0 STARLINK-5328,1 55657U 23021AF  24080.70549893 -.00000914  00000-0 -68790-4 0  9995,2 55657  70.0016 177.4348 0002934 268.1401  91.9422 14.98329226 61581,6950.195,96.107,574.099,570.021,0.0
55657.0,STARLINK-5328,PAYLOAD,2024-03-21 12:09:31,14.98335153,0.0002839,70.0018,175.4159,263.6896,96.394,-2.1469e-05,-3.49e-06,0.0,0 STARLINK-5328,1 55657U 23021AF  24081.50661318 -.00000349  00000-0 -21469-4 0  9995,2 55657  70.0018 175.4159 0002839 263.6896  96.3940 14.98335153 61404,6950.177,96.107,574.015,570.069,0.0
55657.0,STARLINK-5328,PAYLOAD,2024-03-21 13:45:39,14.98335944,0.0002809,70.0016,175.2461,264.9307,95.1532,-4.1087e-06,-1.42e-06,0.0,0 STARLINK-5328,1 55657U 23021AF  24081.57337191 -.00000142  00000-0 -41087-5 0  9991,2 55657  70.0016 175.2461 0002809 264.9307  95.1532 14.98335944 61710,6950.175,96.107,573.992,570.087,0.0
55657.0,STARLINK-5328,PAYLOAD,2024-03-21 16:57:55,14.98338908,0.0002748,70.002,174.9085,264.319,95.7655,5.4747e-05,5.6e-06,0.0,0 STARLINK-5328,1 55657U 23021AF  24081.70688784  .00000560  00000-0  54747-4 0  9991,2 55657  70.0020 174.9085 0002748 264.3190  95.7655 14.98338908 61736,6950.165,96.106,573.94,570.12,0.0
55657.0,STARLINK-5328,PAYLOAD,2024-03-22 12:11:31,14.98334034,0.0002602,70.0021,172.8901,253.3134,106.7739,0.00013874,1.563e-05,0.0,0 STARLINK-5328,1 55657U 23021AF  24082.50800540  .00001563  00000-0  13874-3 0  9995,2 55657  70.0021 172.8901 0002602 253.3134 106.7739 14.98334034 61558,6950.18,96.107,573.854,570.237,0.0
55657.0,STARLINK-5328,PAYLOAD,2024-03-22 13:47:39,14.98333809,0.0002573,70.0022,172.7224,253.0407,107.047,0.00016658,1.895e-05,0.0,0 STARLINK-5328,1 55657U 23021AF  24082.57476465  .00001895  00000-0  16658-3 0  9998,2 55657  70.0022 172.7224 0002573 253.0407 107.0470 14.98333809 61862,6950.181,96.107,573.834,570.258,0.0
55657.0,STARLINK-5328,PAYLOAD,2024-03-22 15:23:47,14.98334985,0.000256,70.0023,172.5543,252.4361,107.6519,0.00017941,2.049e-05,0.0,0 STARLINK-5328,1 55657U 23021AF  24082.64152330  .00002049  00000-0  17941-3 0  9996,2 55657  70.0023 172.5543 0002560 252.4361 107.6519 14.98334985 61870,6950.177,96.107,573.822,570.263,0.0
55657.0,STARLINK-5328,PAYLOAD,2024-03-23 05:49:01,14.98322661,0.0002879,70.0016,171.0401,268.2375,91.8454,-9.841e-05,-1.267e-05,0.0,0 STARLINK-5328,1 55657U 23021AF  24083.24238015 -.00001267  00000-0 -98410-4 0  9992,2 55657  70.0016 171.0401 0002879 268.2375  91.8454 14.98322661 61669,6950.216,96.107,574.082,570.08,0.0
